[{"OBJECT_NAME":"ONEWEB-0391","OBJECT_ID":"2021-132C","EPOCH":"2026-03-09T21:03:44.229600","MEAN_MOTION":13.17649662,"ECCENTRICITY":0.00019766,"INCLINATION":87.9151,"RA_OF_ASC_NODE":25.5986,"ARG_OF_PERICENTER":54.8205,"MEAN_ANOMALY":305.3111,"EPHEMERIS_TYPE":0,"CLASSIFICATION_TYPE":"U","NORAD_CAT_ID":50471,"ELEMENT_SET_NO":999,"REV_AT_EPOCH":20500,"BSTAR":0.00011468789,"MEAN_MOTION_DOT":5.7e-7,"MEAN_MOTION_DDOT":0},{"OBJECT_NAME":"DELTA 1 DEB","OBJECT_ID":"1976-077AB","EPOCH":"2026-03-09T12:38:45.303936","MEAN_MOTION":12.83317891,"ECCENTRICITY":0.03886931,"INCLINATION":101.5469,"RA_OF_ASC_NODE":288.377,"ARG_OF_PERICENTER":348.669,"MEAN_ANOMALY":71.1325,"EPHEMERIS_TYPE":0,"CLASSIFICATION_TYPE":"U","NORAD_CAT_ID":10706,"ELEMENT_SET_NO":999,"REV_AT_EPOCH":30669,"BSTAR":0.0017240621,"MEAN_MOTION_DOT":5.19e-6,"MEAN_MOTION_DDOT":0}]
